{
  "type": "FeatureCollection",
  "features": [
    {
      "type": "Feature",
      "properties": {
        "norad_id": 67075,
        "name": "STARLINK-36230",
        "group": "last-30-days",
        "lat": 0.16331278980873537,
        "lon": -138.66628465703582,
        "alt_km": 308.6747312110401,
        "timestamp": "2025-12-22T20:43:44.568877+00:00",
        "meta_object_name": "STARLINK-36230",
        "meta_object_id": "2025-298A",
        "meta_epoch": "2025-12-22T14:00:01.999872",
        "meta_mean_motion": 15.88526042,
        "meta_eccentricity": 0.00044873,
        "meta_inclination": 69.9974,
        "meta_ra_of_asc_node": 222.0841,
        "meta_arg_of_pericenter": 269.9413,
        "meta_mean_anomaly": 287.4863,
        "meta_ephemeris_type": 0,
        "meta_classification_type": "U",
        "meta_norad_cat_id": 67075,
        "meta_element_set_no": 999,
        "meta_rev_at_epoch": 256,
        "meta_bstar": 0.00064651343,
        "meta_mean_motion_dot": 0.00183892,
        "meta_mean_motion_ddot": 0,
        "tle_line1": "1 67075U 25298A   25356.58335648  .00183892  00000+0  64651-3 0  9999",
        "tle_line2": "2 67075  69.9974 222.0841 0004487 269.9413 287.4863 15.88526042  2569"
      },
      "geometry": {
        "type": "Point",
        "coordinates": [
          -138.66628465703582,
          0.16331278980873537
        ]
      }
    },
    {
      "type": "Feature",
      "properties": {
        "norad_id": 67076,
        "name": "STARLINK-36240",
        "group": "last-30-days",
        "lat": 1.939910539669629,
        "lon": -138.02106270919867,
        "alt_km": 308.6153088578003,
        "timestamp": "2025-12-22T20:43:44.568887+00:00",
        "meta_object_name": "STARLINK-36240",
        "meta_object_id": "2025-298B",
        "meta_epoch": "2025-12-22T14:00:01.999872",
        "meta_mean_motion": 15.88580237,
        "meta_eccentricity": 0.00045373,
        "meta_inclination": 69.9974,
        "meta_ra_of_asc_node": 222.0819,
        "meta_arg_of_pericenter": 265.6221,
        "meta_mean_anomaly": 293.6411,
        "meta_ephemeris_type": 0,
        "meta_classification_type": "U",
        "meta_norad_cat_id": 67076,
        "meta_element_set_no": 999,
        "meta_rev_at_epoch": 256,
        "meta_bstar": 0.00064381259,
        "meta_mean_motion_dot": 0.00183613,
        "meta_mean_motion_ddot": 0,
        "tle_line1": "1 67076U 25298B   25356.58335648  .00183613  00000+0  64381-3 0  9991",
        "tle_line2": "2 67076  69.9974 222.0819 0004537 265.6221 293.6411 15.88580237  2565"
      },
      "geometry": {
        "type": "Point",
        "coordinates": [
          -138.02106270919867,
          1.939910539669629
        ]
      }
    },
    {
      "type": "Feature",
      "properties": {
        "norad_id": 67077,
        "name": "STARLINK-36243",
        "group": "last-30-days",
        "lat": 4.0694727582455865,
        "lon": -137.24516505156234,
        "alt_km": 308.1636214511518,
        "timestamp": "2025-12-22T20:43:44.568897+00:00",
        "meta_object_name": "STARLINK-36243",
        "meta_object_id": "2025-298C",
        "meta_epoch": "2025-12-22T14:00:01.999872",
        "meta_mean_motion": 15.88642171,
        "meta_eccentricity": 0.00045723,
        "meta_inclination": 69.9971,
        "meta_ra_of_asc_node": 222.0797,
        "meta_arg_of_pericenter": 267.9429,
        "meta_mean_anomaly": 293.5257,
        "meta_ephemeris_type": 0,
        "meta_classification_type": "U",
        "meta_norad_cat_id": 67077,
        "meta_element_set_no": 999,
        "meta_rev_at_epoch": 256,
        "meta_bstar": 0.0006149438,
        "meta_mean_motion_dot": 0.00175756,
        "meta_mean_motion_ddot": 0,
        "tle_line1": "1 67077U 25298C   25356.58335648  .00175756  00000+0  61494-3 0  9993",
        "tle_line2": "2 67077  69.9971 222.0797 0004572 267.9429 293.5257 15.88642171  2565"
      },
      "geometry": {
        "type": "Point",
        "coordinates": [
          -137.24516505156234,
          4.0694727582455865
        ]
      }
    },
    {
      "type": "Feature",
      "properties": {
        "norad_id": 67078,
        "name": "STARLINK-36236",
        "group": "last-30-days",
        "lat": 5.698308865305245,
        "lon": -136.64968856500303,
        "alt_km": 307.84213929853195,
        "timestamp": "2025-12-22T20:43:44.568907+00:00",
        "meta_object_name": "STARLINK-36236",
        "meta_object_id": "2025-298D",
        "meta_epoch": "2025-12-22T14:00:01.999872",
        "meta_mean_motion": 15.8868621,
        "meta_eccentricity": 0.00046938,
        "meta_inclination": 69.9973,
        "meta_ra_of_asc_node": 222.0772,
        "meta_arg_of_pericenter": 269.1154,
        "meta_mean_anomaly": 294.0392,
        "meta_ephemeris_type": 0,
        "meta_classification_type": "U",
        "meta_norad_cat_id": 67078,
        "meta_element_set_no": 999,
        "meta_rev_at_epoch": 256,
        "meta_bstar": 0.00063846494,
        "meta_mean_motion_dot": 0.00183045,
        "meta_mean_motion_ddot": 0,
        "tle_line1": "1 67078U 25298D   25356.58335648  .00183045  00000+0  63846-3 0  9997",
        "tle_line2": "2 67078  69.9973 222.0772 0004693 269.1154 294.0392 15.88686210  2562"
      },
      "geometry": {
        "type": "Point",
        "coordinates": [
          -136.64968856500303,
          5.698308865305245
        ]
      }
    },
    {
      "type": "Feature",
      "properties": {
        "norad_id": 67079,
        "name": "STARLINK-36159",
        "group": "last-30-days",
        "lat": 7.842404859740197,
        "lon": -135.85934452897942,
        "alt_km": 307.50498282011085,
        "timestamp": "2025-12-22T20:43:44.568917+00:00",
        "meta_object_name": "STARLINK-36159",
        "meta_object_id": "2025-298E",
        "meta_epoch": "2025-12-22T14:00:01.999872",
        "meta_mean_motion": 15.88741311,
        "meta_eccentricity": 0.00045947,
        "meta_inclination": 69.9975,
        "meta_ra_of_asc_node": 222.0747,
        "meta_arg_of_pericenter": 268.9289,
        "meta_mean_anomaly": 296.4549,
        "meta_ephemeris_type": 0,
        "meta_classification_type": "U",
        "meta_norad_cat_id": 67079,
        "meta_element_set_no": 999,
        "meta_rev_at_epoch": 256,
        "meta_bstar": 0.00063302796,
        "meta_mean_motion_dot": 0.00181954,
        "meta_mean_motion_ddot": 0,
        "tle_line1": "1 67079U 25298E   25356.58335648  .00181954  00000+0  63303-3 0  9993",
        "tle_line2": "2 67079  69.9975 222.0747 0004594 268.9289 296.4549 15.88741311  2567"
      },
      "geometry": {
        "type": "Point",
        "coordinates": [
          -135.85934452897942,
          7.842404859740197
        ]
      }
    },
    {
      "type": "Feature",
      "properties": {
        "norad_id": 67080,
        "name": "STARLINK-36158",
        "group": "last-30-days",
        "lat": 9.860713975258788,
        "lon": -135.10745467832575,
        "alt_km": 307.0982005405931,
        "timestamp": "2025-12-22T20:43:44.568927+00:00",
        "meta_object_name": "STARLINK-36158",
        "meta_object_id": "2025-298F",
        "meta_epoch": "2025-12-22T14:00:01.999872",
        "meta_mean_motion": 15.88736956,
        "meta_eccentricity": 0.00042719,
        "meta_inclination": 69.9973,
        "meta_ra_of_asc_node": 222.0722,
        "meta_arg_of_pericenter": 269.9328,
        "meta_mean_anomaly": 297.5836,
        "meta_ephemeris_type": 0,
        "meta_classification_type": "U",
        "meta_norad_cat_id": 67080,
        "meta_element_set_no": 999,
        "meta_rev_at_epoch": 250,
        "meta_bstar": 0.00095807391,
        "meta_mean_motion_dot": 0.00278416,
        "meta_mean_motion_ddot": 0,
        "tle_line1": "1 67080U 25298F   25356.58335648  .00278416  00000+0  95807-3 0  9999",
        "tle_line2": "2 67080  69.9973 222.0722 0004271 269.9328 297.5836 15.88736956  2501"
      },
      "geometry": {
        "type": "Point",
        "coordinates": [
          -135.10745467832575,
          9.860713975258788
        ]
      }
    },
    {
      "type": "Feature",
      "properties": {
        "norad_id": 67081,
        "name": "STARLINK-35864",
        "group": "last-30-days",
        "lat": 11.683155497519232,
        "lon": -134.42006058612398,
        "alt_km": 306.67337099921315,
        "timestamp": "2025-12-22T20:43:44.568937+00:00",
        "meta_object_name": "STARLINK-35864",
        "meta_object_id": "2025-298G",
        "meta_epoch": "2025-12-22T14:00:01.999872",
        "meta_mean_motion": 15.8877952,
        "meta_eccentricity": 0.00041192,
        "meta_inclination": 69.9974,
        "meta_ra_of_asc_node": 222.07,
        "meta_arg_of_pericenter": 272.5084,
        "meta_mean_anomaly": 296.9125,
        "meta_ephemeris_type": 0,
        "meta_classification_type": "U",
        "meta_norad_cat_id": 67081,
        "meta_element_set_no": 999,
        "meta_rev_at_epoch": 256,
        "meta_bstar": 0.00092196527,
        "meta_mean_motion_dot": 0.00268162,
        "meta_mean_motion_ddot": 0,
        "tle_line1": "1 67081U 25298G   25356.58335648  .00268162  00000+0  92197-3 0  9996",
        "tle_line2": "2 67081  69.9974 222.0700 0004119 272.5084 296.9125 15.88779520  2563"
      },
      "geometry": {
        "type": "Point",
        "coordinates": [
          -134.42006058612398,
          11.683155497519232
        ]
      }
    }
  ]
}